{
  "type": "FeatureCollection",
  "features": [
    {
      "type": "Feature",
      "properties": {
        "norad_id": 33860,
        "name": "IRIDIUM 33 DEB",
        "group": "iridium-33-debris",
        "lat": 46.71915567469504,
        "lon": 33.69138719512296,
        "alt_km": 660.7804482268994,
        "timestamp": "2025-12-06T20:37:56.459911+00:00",
        "meta_object_name": "IRIDIUM 33 DEB",
        "meta_object_id": "1997-051AD",
        "meta_epoch": "2025-12-06T14:28:14.396160",
        "meta_mean_motion": 14.67248023,
        "meta_eccentricity": 0.00082636,
        "meta_inclination": 86.3839,
        "meta_ra_of_asc_node": 29.9545,
        "meta_arg_of_pericenter": 18.1791,
        "meta_mean_anomaly": 113.4644,
        "meta_ephemeris_type": 0,
        "meta_classification_type": "U",
        "meta_norad_cat_id": 33860,
        "meta_element_set_no": 999,
        "meta_rev_at_epoch": 88632,
        "meta_bstar": 0.0020522142,
        "meta_mean_motion_dot": 0.00011597,
        "meta_mean_motion_ddot": 0,
        "tle_line1": "1 33860U 97051AD  25340.60294440  .00011597  00000+0  20522-2 0  9990",
        "tle_line2": "2 33860  86.3839  29.9545 0008263  18.1791 113.4644 14.67248023886326"
      },
      "geometry": {
        "type": "Point",
        "coordinates": [
          33.69138719512296,
          46.71915567469504
        ]
      }
    },
    {
      "type": "Feature",
      "properties": {
        "norad_id": 33862,
        "name": "IRIDIUM 33 DEB",
        "group": "iridium-33-debris",
        "lat": 37.285236059959715,
        "lon": 42.86352047721321,
        "alt_km": 636.7893288647438,
        "timestamp": "2025-12-06T20:37:56.459923+00:00",
        "meta_object_name": "IRIDIUM 33 DEB",
        "meta_object_id": "1997-051AF",
        "meta_epoch": "2025-12-06T16:06:19.016352",
        "meta_mean_motion": 14.69329507,
        "meta_eccentricity": 0.00538322,
        "meta_inclination": 86.4092,
        "meta_ra_of_asc_node": 40.2062,
        "meta_arg_of_pericenter": 89.4198,
        "meta_mean_anomaly": 31.4086,
        "meta_ephemeris_type": 0,
        "meta_classification_type": "U",
        "meta_norad_cat_id": 33862,
        "meta_element_set_no": 999,
        "meta_rev_at_epoch": 88734,
        "meta_bstar": 0.0024762075,
        "meta_mean_motion_dot": 0.0001499,
        "meta_mean_motion_ddot": 0,
        "tle_line1": "1 33862U 97051AF  25340.67105343  .00014990  00000+0  24762-2 0  9992",
        "tle_line2": "2 33862  86.4092  40.2062 0053832  89.4198  31.4086 14.69329507887345"
      },
      "geometry": {
        "type": "Point",
        "coordinates": [
          42.86352047721321,
          37.285236059959715
        ]
      }
    },
    {
      "type": "Feature",
      "properties": {
        "norad_id": 33866,
        "name": "IRIDIUM 33 DEB",
        "group": "iridium-33-debris",
        "lat": -42.88283276792799,
        "lon": 92.07858827043799,
        "alt_km": 873.8312890204215,
        "timestamp": "2025-12-06T20:37:56.459934+00:00",
        "meta_object_name": "IRIDIUM 33 DEB",
        "meta_object_id": "1997-051AK",
        "meta_epoch": "2025-12-06T14:11:47.218272",
        "meta_mean_motion": 14.25241969,
        "meta_eccentricity": 0.01139826,
        "meta_inclination": 86.3005,
        "meta_ra_of_asc_node": 95.6368,
        "meta_arg_of_pericenter": 180.9906,
        "meta_mean_anomaly": 200.1647,
        "meta_ephemeris_type": 0,
        "meta_classification_type": "U",
        "meta_norad_cat_id": 33866,
        "meta_element_set_no": 999,
        "meta_rev_at_epoch": 86723,
        "meta_bstar": 0.0013124184,
        "meta_mean_motion_dot": 3.32e-05,
        "meta_mean_motion_ddot": 0,
        "tle_line1": "1 33866U 97051AK  25340.59151873  .00003320  00000+0  13124-2 0  9991",
        "tle_line2": "2 33866  86.3005  95.6368 0113982 180.9906 200.1647 14.25241969867233"
      },
      "geometry": {
        "type": "Point",
        "coordinates": [
          92.07858827043799,
          -42.88283276792799
        ]
      }
    },
    {
      "type": "Feature",
      "properties": {
        "norad_id": 33867,
        "name": "IRIDIUM 33 DEB",
        "group": "iridium-33-debris",
        "lat": -33.209241157583584,
        "lon": -9.24995921299699,
        "alt_km": 403.3797789612445,
        "timestamp": "2025-12-06T20:37:56.459945+00:00",
        "meta_object_name": "IRIDIUM 33 DEB",
        "meta_object_id": "1997-051AL",
        "meta_epoch": "2025-12-06T13:04:06.627360",
        "meta_mean_motion": 15.58002769,
        "meta_eccentricity": 0.00124504,
        "meta_inclination": 86.3617,
        "meta_ra_of_asc_node": 353.2987,
        "meta_arg_of_pericenter": 93.4662,
        "meta_mean_anomaly": 266.8026,
        "meta_ephemeris_type": 0,
        "meta_classification_type": "U",
        "meta_norad_cat_id": 33867,
        "meta_element_set_no": 999,
        "meta_rev_at_epoch": 89414,
        "meta_bstar": 0.0092198689,
        "meta_mean_motion_dot": 0.00758101,
        "meta_mean_motion_ddot": 0,
        "tle_line1": "1 33867U 97051AL  25340.54452115  .00758101  00000+0  92199-2 0  9993",
        "tle_line2": "2 33867  86.3617 353.2987 0012450  93.4662 266.8026 15.58002769894148"
      },
      "geometry": {
        "type": "Point",
        "coordinates": [
          -9.24995921299699,
          -33.209241157583584
        ]
      }
    },
    {
      "type": "Feature",
      "properties": {
        "norad_id": 33870,
        "name": "IRIDIUM 33 DEB",
        "group": "iridium-33-debris",
        "lat": -19.698887682679743,
        "lon": 59.48093047728231,
        "alt_km": 756.4117940047099,
        "timestamp": "2025-12-06T20:37:56.459956+00:00",
        "meta_object_name": "IRIDIUM 33 DEB",
        "meta_object_id": "1997-051AP",
        "meta_epoch": "2025-12-06T12:28:59.486880",
        "meta_mean_motion": 14.45799648,
        "meta_eccentricity": 0.00207971,
        "meta_inclination": 86.3754,
        "meta_ra_of_asc_node": 60.9268,
        "meta_arg_of_pericenter": 198.6792,
        "meta_mean_anomaly": 175.3723,
        "meta_ephemeris_type": 0,
        "meta_classification_type": "U",
        "meta_norad_cat_id": 33870,
        "meta_element_set_no": 999,
        "meta_rev_at_epoch": 88047,
        "meta_bstar": 0.0015682537,
        "meta_mean_motion_dot": 5.596e-05,
        "meta_mean_motion_ddot": 0,
        "tle_line1": "1 33870U 97051AP  25340.52013295  .00005596  00000+0  15683-2 0  9993",
        "tle_line2": "2 33870  86.3754  60.9268 0020797 198.6792 175.3723 14.45799648880476"
      },
      "geometry": {
        "type": "Point",
        "coordinates": [
          59.48093047728231,
          -19.698887682679743
        ]
      }
    },
    {
      "type": "Feature",
      "properties": {
        "norad_id": 33881,
        "name": "IRIDIUM 33 DEB",
        "group": "iridium-33-debris",
        "lat": -16.596364145295837,
        "lon": 108.21790531729671,
        "alt_km": 747.1947829392984,
        "timestamp": "2025-12-06T20:37:56.459972+00:00",
        "meta_object_name": "IRIDIUM 33 DEB",
        "meta_object_id": "1997-051BA",
        "meta_epoch": "2025-12-06T07:38:56.020416",
        "meta_mean_motion": 14.56393916,
        "meta_eccentricity": 0.00612815,
        "meta_inclination": 86.3871,
        "meta_ra_of_asc_node": 109.5319,
        "meta_arg_of_pericenter": 195.5267,
        "meta_mean_anomaly": 193.0658,
        "meta_ephemeris_type": 0,
        "meta_classification_type": "U",
        "meta_norad_cat_id": 33881,
        "meta_element_set_no": 999,
        "meta_rev_at_epoch": 87407,
        "meta_bstar": 0.003562561,
        "meta_mean_motion_dot": 0.00016256,
        "meta_mean_motion_ddot": 0,
        "tle_line1": "1 33881U 97051BA  25340.31870394  .00016256  00000+0  35626-2 0  9997",
        "tle_line2": "2 33881  86.3871 109.5319 0061281 195.5267 193.0658 14.56393916874074"
      },
      "geometry": {
        "type": "Point",
        "coordinates": [
          108.21790531729671,
          -16.596364145295837
        ]
      }
    },
    {
      "type": "Feature",
      "properties": {
        "norad_id": 33884,
        "name": "IRIDIUM 33 DEB",
        "group": "iridium-33-debris",
        "lat": -29.029099919914383,
        "lon": -165.50798474188716,
        "alt_km": 649.2731096984535,
        "timestamp": "2025-12-06T20:37:56.459982+00:00",
        "meta_object_name": "IRIDIUM 33 DEB",
        "meta_object_id": "1997-051BD",
        "meta_epoch": "2025-12-06T08:22:17.400864",
        "meta_mean_motion": 14.77245967,
        "meta_eccentricity": 0.00103461,
        "meta_inclination": 86.3691,
        "meta_ra_of_asc_node": 12.703,
        "meta_arg_of_pericenter": 347.5842,
        "meta_mean_anomaly": 26.4048,
        "meta_ephemeris_type": 0,
        "meta_classification_type": "U",
        "meta_norad_cat_id": 33884,
        "meta_element_set_no": 999,
        "meta_rev_at_epoch": 88753,
        "meta_bstar": 0.0022939215,
        "meta_mean_motion_dot": 0.00016315,
        "meta_mean_motion_ddot": 0,
        "tle_line1": "1 33884U 97051BD  25340.34881251  .00016315  00000+0  22939-2 0  9996",
        "tle_line2": "2 33884  86.3691  12.7030 0010346 347.5842  26.4048 14.77245967887538"
      },
      "geometry": {
        "type": "Point",
        "coordinates": [
          -165.50798474188716,
          -29.029099919914383
        ]
      }
    }
  ]
}